ONEWEB-0520             
1 54138U 22138AB  24235.58126363  .00000067  00000+0  13498-3 0  9997
2 54138  87.9092  76.9811 0001224  83.3949 276.7323 13.19726838 90169
ONEWEB-0521             
1 54139U 22138AC  24235.61443620  .00000053  00000+0  99783-4 0  9997
2 54139  87.9090  76.9664 0001932  79.9406 280.1945 13.19726750 89248
ONEWEB-0522             
1 54140U 22138AD  24235.59390342  .00000058  00000+0  11144-3 0  9997
2 54140  87.9091  76.9721 0001642  89.0161 271.1160 13.19726114 90158
ONEWEB-0523             
1 54141U 22138AE  24235.70400915  .00000994  00000+0  24132-2 0  9998
2 54141  87.9198  46.4167 0002666  95.7934 264.3504 13.20781214 92592
ONEWEB-0524             
1 54142U 22138AF  24235.76872007 -.00000035  00000+0 -11712-3 0  9999
2 54142  87.9196  46.4070 0002369 117.6305 242.5069 13.20774130 92605
ONEWEB-0525             
1 54143U 22138AG  24235.61285637 -.00000042  00000+0 -13781-3 0  9997
2 54143  87.9092  76.9791 0001390  82.1005 278.0285 13.19724692 89308
ONEWEB-0526             
1 54144U 22138AH  24235.57021360  .00000019  00000+0  15828-4 0  9991
2 54144  87.9092  76.9816 0001625  86.9671 273.1648 13.19724150 89273
ONEWEB-0529             
1 54145U 22138AJ  24235.57336362  .00000030  00000+0  41397-4 0  9996
2 54145  87.9099  77.0008 0001385  85.8605 274.2686 13.19722270 89291
